{
  "type": "FeatureCollection",
  "name": "Burger Ya delivery zones - latest",
  "properties": {
    "sourceFile": "Envios Burger Ya (1).kmz",
    "note": "Direct conversion from latest user-provided KMZ. Delivery fees are already the updated full prices paid by the customer; do not add an extra subsidy offset. Fase 3.5: 21 poligonos originales fusionados a 14 (dissolve de piezas contiguas/solapadas de igual zoneNumber+precio; 2 pares con hueco de trazado de pocos metros cerrados de forma puntual, clip garantizado contra invadir zonas vecinas de otro precio)."
  },
  "features": [
    {
      "type": "Feature",
      "properties": {
        "id": "delivery-zone-01",
        "featureType": "delivery_zone",
        "name": "Zona 1 - $1000",
        "originalName": "Zona 1 - $1000",
        "zoneNumber": 1,
        "customerDeliveryFee": 1000,
        "deliveryPrice": 1000,
        "description": "",
        "source": "Envios Burger Ya (1).kmz"
      },
      "geometry": {
        "type": "Polygon",
        "coordinates": [
          [
            [
              -58.6497401,
              -34.6053361
            ],
            [
              -58.6443543,
              -34.6096365
            ],
            [
              -58.6440483,
              -34.6096476
            ],
            [
              -58.6431151,
              -34.6088716
            ],
            [
              -58.6428255,
              -34.6085371
            ],
            [
              -58.6417417,
              -34.6072082
            ],
            [
              -58.6397622,
              -34.6049387
            ],
            [
              -58.6375791,
              -34.6027752
            ],
            [
              -58.6353635,
              -34.6045237
            ],
            [
              -58.6360824,
              -34.5969819
            ],
            [
              -58.6435925,
              -34.5911704
            ],
            [
              -58.6471868,
              -34.5954893
            ],
            [
              -58.6513924,
              -34.5920713
            ],
            [
              -58.6560702,
              -34.5957896
            ],
            [
              -58.6558234,
              -34.5961517
            ],
            [
              -58.657296,
              -34.5973992
            ],
            [
              -58.6489033,
              -34.6043736
            ],
            [
              -58.6497401,
              -34.6053361
            ]
          ]
        ]
      }
    },
    {
      "type": "Feature",
      "properties": {
        "id": "delivery-zone-02",
        "featureType": "delivery_zone",
        "name": "Zona 2 - $1500",
        "originalName": "Zona 2 - $1500",
        "zoneNumber": 2,
        "customerDeliveryFee": 1500,
        "deliveryPrice": 1500,
        "description": "",
        "source": "Envios Burger Ya (1).kmz"
      },
      "geometry": {
        "type": "Polygon",
        "coordinates": [
          [
            [
              -58.6500817,
              -34.6056473
            ],
            [
              -58.6497274,
              -34.6059169
            ],
            [
              -58.6511785,
              -34.6071466
            ],
            [
              -58.6483568,
              -34.6096014
            ],
            [
              -58.6486036,
              -34.609778
            ],
            [
              -58.64443,
              -34.6131864
            ],
            [
              -58.6428744,
              -34.6144138
            ],
            [
              -58.6398166,
              -34.6110937
            ],
            [
              -58.6385185,
              -34.6096721
            ],
            [
              -58.6370379,
              -34.6082151
            ],
            [
              -58.6348841,
              -34.6099686
            ],
            [
              -58.6337656,
              -34.609831
            ],
            [
              -58.6333364,
              -34.6103255
            ],
            [
              -58.6315233,
              -34.6087361
            ],
            [
              -58.6332935,
              -34.6073232
            ],
            [
              -58.6323065,
              -34.606449
            ],
            [
              -58.6334008,
              -34.6057513
            ],
            [
              -58.6323601,
              -34.6050449
            ],
            [
              -58.6321455,
              -34.6044885
            ],
            [
              -58.6329287,
              -34.6038174
            ],
            [
              -58.6318451,
              -34.6025634
            ],
            [
              -58.6326283,
              -34.6018393
            ],
            [
              -58.63177,
              -34.6010533
            ],
            [
              -58.6325103,
              -34.6003821
            ],
            [
              -58.6317533,
              -34.5997365
            ],
            [
              -58.6327034,
              -34.5989779
            ],
            [
              -58.6311585,
              -34.5976885
            ],
            [
              -58.632918,
              -34.5962667
            ],
            [
              -58.6340767,
              -34.5952863
            ],
            [
              -58.6369306,
              -34.5932462
            ],
            [
              -58.6397523,
              -34.5909233
            ],
            [
              -58.6413509,
              -34.5896338
            ],
            [
              -58.6445266,
              -34.5872755
            ],
            [
              -58.6473805,
              -34.5872048
            ],
            [
              -58.6500602,
              -34.5892735
            ],
            [
              -58.6520343,
              -34.587878
            ],
            [
              -58.6525493,
              -34.588302
            ],
            [
              -58.6533218,
              -34.5877543
            ],
            [
              -58.6593299,
              -34.5928594
            ],
            [
              -58.6595874,
              -34.5930537
            ],
            [
              -58.6573773,
              -34.5948554
            ],
            [
              -58.6621194,
              -34.599024
            ],
            [
              -58.6551242,
              -34.6045346
            ],
            [
              -58.6532145,
              -34.603104
            ],
            [
              -58.6500817,
              -34.6056473
            ]
          ],
          [
            [
              -58.6497767,
              -34.6053176
            ],
            [
              -58.6497786,
              -34.6053161
            ],
            [
              -58.6500817,
              -34.6056473
            ],
            [
              -58.6497767,
              -34.6053176
            ]
          ],
          [
            [
              -58.6443632,
              -34.6097534
            ],
            [
              -58.6431186,
              -34.6089587
            ],
            [
              -58.6397622,
              -34.6049387
            ],
            [
              -58.6375611,
              -34.6028655
            ],
            [
              -58.6353635,
              -34.6045237
            ],
            [
              -58.6360824,
              -34.5969819
            ],
            [
              -58.6378937,
              -34.5955797
            ],
            [
              -58.6435925,
              -34.5911704
            ],
            [
              -58.6471868,
              -34.5954893
            ],
            [
              -58.6513924,
              -34.5920713
            ],
            [
              -58.6560702,
              -34.5957896
            ],
            [
              -58.6558234,
              -34.5961517
            ],
            [
              -58.6573343,
              -34.597399
            ],
            [
              -58.6489033,
              -34.6043736
            ],
            [
              -58.6497767,
              -34.6053176
            ],
            [
              -58.6443632,
              -34.6097534
            ]
          ]
        ]
      }
    },
    {
      "type": "Feature",
      "properties": {
        "id": "delivery-zone-03",
        "featureType": "delivery_zone",
        "name": "Zona 3 - $2000",
        "originalName": "Zona 3 - $2000",
        "zoneNumber": 3,
        "customerDeliveryFee": 2000,
        "deliveryPrice": 2000,
        "description": "Fusion (Fase 3.5, dissolve de poligonos contiguos/solapados de igual tarifa) de delivery-zone-03, delivery-zone-04. Sin buffer ni cierre de huecos.",
        "source": "fusion-fase-3.5"
      },
      "geometry": {
        "type": "Polygon",
        "coordinates": [
          [
            [
              -58.6713177,
              -34.5933627
            ],
            [
              -58.6636248,
              -34.5996267
            ],
            [
              -58.6641453,
              -34.6000837
            ],
            [
              -58.6637456,
              -34.6005031
            ],
            [
              -58.6583477,
              -34.604753
            ],
            [
              -58.6566609,
              -34.6047145
            ],
            [
              -58.6551242,
              -34.6045346
            ],
            [
              -58.6621934,
              -34.5990182
            ],
            [
              -58.6594086,
              -34.596498
            ],
            [
              -58.6573773,
              -34.5948554
            ],
            [
              -58.6595874,
              -34.5930537
            ],
            [
              -58.6576596,
              -34.5914108
            ],
            [
              -58.6553133,
              -34.5894301
            ],
            [
              -58.6533218,
              -34.5877543
            ],
            [
              -58.6525493,
              -34.588302
            ],
            [
              -58.6520338,
              -34.5878204
            ],
            [
              -58.6500602,
              -34.5892735
            ],
            [
              -58.6473409,
              -34.587137
            ],
            [
              -58.646017,
              -34.5871869
            ],
            [
              -58.6444871,
              -34.5872033
            ],
            [
              -58.6408758,
              -34.5899049
            ],
            [
              -58.6364559,
              -34.5935296
            ],
            [
              -58.6335695,
              -34.5956034
            ],
            [
              -58.632507,
              -34.5965644
            ],
            [
              -58.6310828,
              -34.5976659
            ],
            [
              -58.6326196,
              -34.5989971
            ],
            [
              -58.6317533,
              -34.5997365
            ],
            [
              -58.6324378,
              -34.6003939
            ],
            [
              -58.6317225,
              -34.6010733
            ],
            [
              -58.6325732,
              -34.6018454
            ],
            [
              -58.6317999,
              -34.602587
            ],
            [
              -58.6328748,
              -34.6038255
            ],
            [
              -58.6324154,
              -34.6042157
            ],
            [
              -58.6321063,
              -34.6044557
            ],
            [
              -58.6323415,
              -34.6050798
            ],
            [
              -58.6333491,
              -34.6057439
            ],
            [
              -58.6322709,
              -34.6064415
            ],
            [
              -58.6332176,
              -34.6073313
            ],
            [
              -58.632224,
              -34.6081052
            ],
            [
              -58.631475,
              -34.6087327
            ],
            [
              -58.6333158,
              -34.6103777
            ],
            [
              -58.6338105,
              -34.6098682
            ],
            [
              -58.6348841,
              -34.6099686
            ],
            [
              -58.6370319,
              -34.6082456
            ],
            [
              -58.6386195,
              -34.6097997
            ],
            [
              -58.6411462,
              -34.6125812
            ],
            [
              -58.6428683,
              -34.6144576
            ],
            [
              -58.6464947,
              -34.6115834
            ],
            [
              -58.6486277,
              -34.6097802
            ],
            [
              -58.648391,
              -34.6095878
            ],
            [
              -58.6498112,
              -34.6083671
            ],
            [
              -58.6512663,
              -34.6071132
            ],
            [
              -58.6528692,
              -34.6085504
            ],
            [
              -58.6502514,
              -34.6105814
            ],
            [
              -58.6525155,
              -34.6119961
            ],
            [
              -58.6478374,
              -34.6157214
            ],
            [
              -58.6470323,
              -34.6150937
            ],
            [
              -58.6453578,
              -34.6164166
            ],
            [
              -58.6425164,
              -34.6185538
            ],
            [
              -58.640999,
              -34.6194724
            ],
            [
              -58.6393314,
              -34.6204704
            ],
            [
              -58.6383631,
              -34.6191283
            ],
            [
              -58.637203,
              -34.6196625
            ],
            [
              -58.6363763,
              -34.6185257
            ],
            [
              -58.6341977,
              -34.6183778
            ],
            [
              -58.6345021,
              -34.6153137
            ],
            [
              -58.63457875286343,
              -34.61382297178045
            ],
            [
              -58.6344879,
              -34.6149698
            ],
            [
              -58.6332038,
              -34.6150503
            ],
            [
              -58.631834,
              -34.6136651
            ],
            [
              -58.6287147,
              -34.611091
            ],
            [
              -58.6267691,
              -34.6092653
            ],
            [
              -58.6248663,
              -34.6083578
            ],
            [
              -58.620782,
              -34.6049005
            ],
            [
              -58.621375,
              -34.6029399
            ],
            [
              -58.6205517,
              -34.6009441
            ],
            [
              -58.6191738,
              -34.5990453
            ],
            [
              -58.6186541,
              -34.5975351
            ],
            [
              -58.6193601,
              -34.59589
            ],
            [
              -58.6218684,
              -34.5939975
            ],
            [
              -58.6237062,
              -34.5924805
            ],
            [
              -58.6256511,
              -34.5909369
            ],
            [
              -58.6272982,
              -34.5896243
            ],
            [
              -58.6299967,
              -34.5874903
            ],
            [
              -58.6353719,
              -34.5833105
            ],
            [
              -58.6354684,
              -34.5834077
            ],
            [
              -58.6355167,
              -34.583337
            ],
            [
              -58.6363591,
              -34.5827291
            ],
            [
              -58.6393979,
              -34.5801642
            ],
            [
              -58.6412955,
              -34.5788518
            ],
            [
              -58.6462958,
              -34.5749257
            ],
            [
              -58.6501333,
              -34.5782698
            ],
            [
              -58.6514293,
              -34.5779402
            ],
            [
              -58.6523007,
              -34.5773489
            ],
            [
              -58.6530037,
              -34.5768616
            ],
            [
              -58.6539951,
              -34.5777616
            ],
            [
              -58.6541958,
              -34.5780658
            ],
            [
              -58.6545375,
              -34.5783084
            ],
            [
              -58.6557907,
              -34.5794775
            ],
            [
              -58.6563584,
              -34.5801448
            ],
            [
              -58.6569691,
              -34.581033
            ],
            [
              -58.6579812,
              -34.5822969
            ],
            [
              -58.6593908,
              -34.5834057
            ],
            [
              -58.6599793,
              -34.5839315
            ],
            [
              -58.6608487,
              -34.5846558
            ],
            [
              -58.6621795,
              -34.585813
            ],
            [
              -58.6650936,
              -34.5882166
            ],
            [
              -58.6683002,
              -34.5909756
            ],
            [
              -58.6685791,
              -34.5909315
            ],
            [
              -58.66907,
              -34.591362
            ],
            [
              -58.6713177,
              -34.5933627
            ]
          ]
        ]
      }
    },
    {
      "type": "Feature",
      "properties": {
        "id": "delivery-zone-05",
        "featureType": "delivery_zone",
        "name": "Zona 4 - $2500",
        "originalName": "Zona 4 - $2500",
        "zoneNumber": 4,
        "customerDeliveryFee": 2500,
        "deliveryPrice": 2500,
        "description": "Fusion (Fase 3.5, dissolve de poligonos contiguos/solapados de igual tarifa) de delivery-zone-05, delivery-zone-07, delivery-zone-20. Sin buffer ni cierre de huecos.",
        "source": "fusion-fase-3.5"
      },
      "geometry": {
        "type": "Polygon",
        "coordinates": [
          [
            [
              -58.6739824,
              -34.586381
            ],
            [
              -58.6684463,
              -34.5909032
            ],
            [
              -58.6601093,
              -34.5839431
            ],
            [
              -58.6579812,
              -34.5822969
            ],
            [
              -58.6563383,
              -34.580083
            ],
            [
              -58.65331983004236,
              -34.576978715742776
            ],
            [
              -58.65202645502195,
              -34.577760959281854
            ],
            [
              -58.65137563562383,
              -34.578023373127415
            ],
            [
              -58.650724816225704,
              -34.57828578697298
            ],
            [
              -58.65007399682759,
              -34.57828578697298
            ],
            [
              -58.65007399682759,
              -34.57817357222313
            ],
            [
              -58.6500606,
              -34.578184
            ],
            [
              -58.6462958,
              -34.5749257
            ],
            [
              -58.6436382,
              -34.5769929
            ],
            [
              -58.6409912,
              -34.5790688
            ],
            [
              -58.6393979,
              -34.5801642
            ],
            [
              -58.6354791,
              -34.5833679
            ],
            [
              -58.6323378,
              -34.5804595
            ],
            [
              -58.6312739,
              -34.5811879
            ],
            [
              -58.6279309,
              -34.5783013
            ],
            [
              -58.6290942,
              -34.5771461
            ],
            [
              -58.6326311,
              -34.5743981
            ],
            [
              -58.6392424,
              -34.56868
            ],
            [
              -58.6475609,
              -34.5682695
            ],
            [
              -58.6510765,
              -34.5688769
            ],
            [
              -58.6533046,
              -34.5696609
            ],
            [
              -58.65695096209133,
              -34.57277040240563
            ],
            [
              -58.6578891,
              -34.5720353
            ],
            [
              -58.6739824,
              -34.586381
            ]
          ]
        ]
      }
    },
    {
      "type": "Feature",
      "properties": {
        "id": "delivery-zone-06",
        "featureType": "delivery_zone",
        "name": "Zona 4 - $2500",
        "originalName": "Zona 4 - $2500",
        "zoneNumber": 4,
        "customerDeliveryFee": 2500,
        "deliveryPrice": 2500,
        "description": "",
        "source": "Envios Burger Ya (1).kmz"
      },
      "geometry": {
        "type": "Polygon",
        "coordinates": [
          [
            [
              -58.6299508,
              -34.5874633
            ],
            [
              -58.6186319,
              -34.5964632
            ],
            [
              -58.6179131,
              -34.595134
            ],
            [
              -58.6173981,
              -34.5933809
            ],
            [
              -58.6171835,
              -34.592533
            ],
            [
              -58.6166471,
              -34.5878166
            ],
            [
              -58.6209815,
              -34.5840008
            ],
            [
              -58.625552,
              -34.5875516
            ],
            [
              -58.6299508,
              -34.5874633
            ]
          ]
        ]
      }
    },
    {
      "type": "Feature",
      "properties": {
        "id": "delivery-zone-08",
        "featureType": "delivery_zone",
        "name": "Zona 4 - $2500",
        "originalName": "Zona 4 - $2500",
        "zoneNumber": 4,
        "customerDeliveryFee": 2500,
        "deliveryPrice": 2500,
        "description": "Fusion (Fase 3.5, dissolve de poligonos contiguos/solapados de igual tarifa) de delivery-zone-08, delivery-zone-21. Sin buffer ni cierre de huecos.",
        "source": "fusion-fase-3.5"
      },
      "geometry": {
        "type": "Polygon",
        "coordinates": [
          [
            [
              -58.6393314,
              -34.6204704
            ],
            [
              -58.6387722,
              -34.6208014
            ],
            [
              -58.638164,
              -34.6214393
            ],
            [
              -58.6372561,
              -34.622746
            ],
            [
              -58.6338007,
              -34.6207529
            ],
            [
              -58.6337637,
              -34.6210083
            ],
            [
              -58.6333051,
              -34.6216793
            ],
            [
              -58.6282839,
              -34.622496
            ],
            [
              -58.6263983,
              -34.6220567
            ],
            [
              -58.6260456,
              -34.6212014
            ],
            [
              -58.6259933,
              -34.6127526
            ],
            [
              -58.6259612,
              -34.6120109
            ],
            [
              -58.6259397,
              -34.6115871
            ],
            [
              -58.6257788,
              -34.6109249
            ],
            [
              -58.6246523,
              -34.6098741
            ],
            [
              -58.6240085,
              -34.6096533
            ],
            [
              -58.6229893,
              -34.6087438
            ],
            [
              -58.6209508,
              -34.6066863
            ],
            [
              -58.6204682,
              -34.6049911
            ],
            [
              -58.622414172407524,
              -34.60662758031018
            ],
            [
              -58.622414172407524,
              -34.606364068447874
            ],
            [
              -58.62273958210658,
              -34.606364068447874
            ],
            [
              -58.623715811203766,
              -34.60715130998455
            ],
            [
              -58.624366630601884,
              -34.607676137675675
            ],
            [
              -58.624366630601884,
              -34.6082009653668
            ],
            [
              -58.624285116950844,
              -34.6082009653668
            ],
            [
              -58.6246369,
              -34.6084968
            ],
            [
              -58.6260103,
              -34.6089561
            ],
            [
              -58.627051,
              -34.6097508
            ],
            [
              -58.6286603,
              -34.6112431
            ],
            [
              -58.6307631,
              -34.6129296
            ],
            [
              -58.6326836,
              -34.6145896
            ],
            [
              -58.6331547,
              -34.6150955
            ],
            [
              -58.6344808,
              -34.6150222
            ],
            [
              -58.6341977,
              -34.6183778
            ],
            [
              -58.6363763,
              -34.6185257
            ],
            [
              -58.637203,
              -34.6196625
            ],
            [
              -58.6383631,
              -34.6191283
            ],
            [
              -58.6393314,
              -34.6204704
            ]
          ]
        ]
      }
    },
    {
      "type": "Feature",
      "properties": {
        "id": "delivery-zone-09",
        "featureType": "delivery_zone",
        "name": "Zona 5 - $3000",
        "originalName": "Zona 5 - $3000",
        "zoneNumber": 5,
        "customerDeliveryFee": 3000,
        "deliveryPrice": 3000,
        "description": "",
        "source": "Envios Burger Ya (1).kmz"
      },
      "geometry": {
        "type": "Polygon",
        "coordinates": [
          [
            [
              -58.6478374,
              -34.6157214
            ],
            [
              -58.6382242,
              -34.6234804
            ],
            [
              -58.6328079,
              -34.6241573
            ],
            [
              -58.6333014,
              -34.6228507
            ],
            [
              -58.6329672,
              -34.6227387
            ],
            [
              -58.6252262,
              -34.6240631
            ],
            [
              -58.6244215,
              -34.6210524
            ],
            [
              -58.6244608,
              -34.6183478
            ],
            [
              -58.6244108,
              -34.6118653
            ],
            [
              -58.6259397,
              -34.6115871
            ],
            [
              -58.6259961,
              -34.6210733
            ],
            [
              -58.6263983,
              -34.6220567
            ],
            [
              -58.6282839,
              -34.622496
            ],
            [
              -58.6335063,
              -34.6218855
            ],
            [
              -58.6338176,
              -34.6208226
            ],
            [
              -58.6339617,
              -34.62085
            ],
            [
              -58.6372561,
              -34.622746
            ],
            [
              -58.6382344,
              -34.6213709
            ],
            [
              -58.6387722,
              -34.6208014
            ],
            [
              -58.6394387,
              -34.6203909
            ],
            [
              -58.6417268,
              -34.6191092
            ],
            [
              -58.6426387,
              -34.6185
            ],
            [
              -58.6448059,
              -34.616893
            ],
            [
              -58.6470323,
              -34.6150937
            ],
            [
              -58.6478374,
              -34.6157214
            ]
          ]
        ]
      }
    },
    {
      "type": "Feature",
      "properties": {
        "id": "delivery-zone-10",
        "featureType": "delivery_zone",
        "name": "Zona 6 - $3500",
        "originalName": "Zona 6 - $3500",
        "zoneNumber": 6,
        "customerDeliveryFee": 3500,
        "deliveryPrice": 3500,
        "description": "Fusion (Fase 3.5) de delivery-zone-10, delivery-zone-12. Hueco puntual de error de trazado (pocos metros) cerrado con buffer local +/-10m aplicado SOLO a este par, confirmado por el usuario como error de dibujo, no exclusion real.",
        "source": "fusion-fase-3.5-gap-closed"
      },
      "geometry": {
        "type": "Polygon",
        "coordinates": [
          [
            [
              -58.655421662947454,
              -34.6154719540514
            ],
            [
              -58.655418517019456,
              -34.6154751619679
            ],
            [
              -58.65265587211675,
              -34.6177841966419
            ],
            [
              -58.65265168898228,
              -34.61778702058704
            ],
            [
              -58.65264665291398,
              -34.617785392982995
            ],
            [
              -58.65240110476675,
              -34.617680104102305
            ],
            [
              -58.652382335573904,
              -34.61767380084137
            ],
            [
              -58.65236247461989,
              -34.61767045906238
            ],
            [
              -58.65234220536618,
              -34.617670193763665
            ],
            [
              -58.65232222532462,
              -34.61767301407479
            ],
            [
              -58.6523032220547,
              -34.6176788229423
            ],
            [
              -58.65228584950327,
              -34.61768742046961
            ],
            [
              -58.652270705500854,
              -34.61769851079581
            ],
            [
              -58.64908339638682,
              -34.62050992956446
            ],
            [
              -58.64906936146513,
              -34.620525328395814
            ],
            [
              -58.64905963014802,
              -34.620542832403714
            ],
            [
              -58.649054648254705,
              -34.62056163968498
            ],
            [
              -58.64905464402183,
              -34.6205808886296
            ],
            [
              -58.649059617646735,
              -34.62059969739325
            ],
            [
              -58.649128580682024,
              -34.62077009882048
            ],
            [
              -58.64912967799245,
              -34.62077399450245
            ],
            [
              -58.64912651261396,
              -34.620777028696445
            ],
            [
              -58.64297860105104,
              -34.62565954918917
            ],
            [
              -58.64297527152165,
              -34.62566231007373
            ],
            [
              -58.64259957799572,
              -34.62598761531795
            ],
            [
              -58.64259563734233,
              -34.62599042072749
            ],
            [
              -58.64259069558851,
              -34.62599178056813
            ],
            [
              -58.63120788844227,
              -34.62813584180414
            ],
            [
              -58.63120312510585,
              -34.62813635233001
            ],
            [
              -58.63120285838499,
              -34.62813577626195
            ],
            [
              -58.63119372274226,
              -34.62812054858077
            ],
            [
              -58.63118127107923,
              -34.628107005569824
            ],
            [
              -58.631165947396106,
              -34.628095630142894
            ],
            [
              -58.631148298102275,
              -34.628086827922324
            ],
            [
              -58.631128952532606,
              -34.62808091277554
            ],
            [
              -58.631108600506785,
              -34.628078095623344
            ],
            [
              -58.63108796773215,
              -34.62807847691903
            ],
            [
              -58.631067789926796,
              -34.62808204306644
            ],
            [
              -58.631048786585815,
              -34.62808866690483
            ],
            [
              -58.6310316353259,
              -34.62809811224302
            ],
            [
              -58.631016947723275,
              -34.62811004228144
            ],
            [
              -58.63100524750628,
              -34.628124031621475
            ],
            [
              -58.630996951880384,
              -34.6281395814342
            ],
            [
              -58.63028044472307,
              -34.629924054835946
            ],
            [
              -58.63027828404745,
              -34.629928027620764
            ],
            [
              -58.63027329123605,
              -34.629929464951736
            ],
            [
              -58.627416121065224,
              -34.63049197849565
            ],
            [
              -58.6268187,
              -34.6306038
            ],
            [
              -58.6264629,
              -34.6295141
            ],
            [
              -58.62642623092165,
              -34.62952055223004
            ],
            [
              -58.62641138967428,
              -34.62951449754191
            ],
            [
              -58.626390900354835,
              -34.62950990973631
            ],
            [
              -58.6263697196136,
              -34.62950866859807
            ],
            [
              -58.62634864696247,
              -34.6295108209766
            ],
            [
              -58.62366660134145,
              -34.63000613206141
            ],
            [
              -58.622949,
              -34.6301324
            ],
            [
              -58.62262222244739,
              -34.628881446538024
            ],
            [
              -58.622054180836415,
              -34.62639822514573
            ],
            [
              -58.62205374350443,
              -34.62639369214107
            ],
            [
              -58.622057611714084,
              -34.626390444708576
            ],
            [
              -58.62223209837305,
              -34.62627228364219
            ],
            [
              -58.62224819370782,
              -34.62625881465989
            ],
            [
              -58.62226051490908,
              -34.62624287622841
            ],
            [
              -58.62226851837159,
              -34.626225171546295
            ],
            [
              -58.622271850988156,
              -34.62620648173815
            ],
            [
              -58.6222703657281,
              -34.62618763139139
            ],
            [
              -58.621227761513055,
              -34.62118825174589
            ],
            [
              -58.6212269763668,
              -34.62118089492456
            ],
            [
              -58.62120562937551,
              -34.61783410568614
            ],
            [
              -58.62120612079518,
              -34.61782995334391
            ],
            [
              -58.62121118603517,
              -34.61782978243919
            ],
            [
              -58.62434401751062,
              -34.617988143152076
            ],
            [
              -58.62434867007113,
              -34.617988739294894
            ],
            [
              -58.62434919899728,
              -34.61799258976229
            ],
            [
              -58.62442128998004,
              -34.621043512188415
            ],
            [
              -58.62442159806375,
              -34.621045651317615
            ],
            [
              -58.6244215,
              -34.6210524
            ],
            [
              -58.62442382033221,
              -34.62106108127774
            ],
            [
              -58.62442382043265,
              -34.6210610819751
            ],
            [
              -58.625203329363366,
              -34.623977535018
            ],
            [
              -58.62520333193833,
              -34.62397754156422
            ],
            [
              -58.6252262,
              -34.6240631
            ],
            [
              -58.62531675899164,
              -34.624047606352086
            ],
            [
              -58.6253307425605,
              -34.62404652366353
            ],
            [
              -58.628454258914466,
              -34.62355121268073
            ],
            [
              -58.62845693420791,
              -34.62355075980678
            ],
            [
              -58.632961562661976,
              -34.6227397150993
            ],
            [
              -58.632967137264664,
              -34.6227392088509
            ],
            [
              -58.63297247471876,
              -34.622740626132064
            ],
            [
              -58.63313474284402,
              -34.622799880291225
            ],
            [
              -58.6331393164164,
              -34.62280204921529
            ],
            [
              -58.633138195810695,
              -34.62280629407594
            ],
            [
              -58.63257157721078,
              -34.62421766548527
            ],
            [
              -58.63256698881692,
              -34.6242341817391
            ],
            [
              -58.63256624619854,
              -34.62425111306077
            ],
            [
              -58.632569375714276,
              -34.62426785854079
            ],
            [
              -58.63257626629671,
              -34.62428382386502
            ],
            [
              -58.63258667339397,
              -34.62429844240751
            ],
            [
              -58.63260022764892,
              -34.62431119534073
            ],
            [
              -58.63261644800779,
              -34.624321630049344
            ],
            [
              -58.63263475879322,
              -34.62432937619418
            ],
            [
              -58.63265451013579,
              -34.62433415885602
            ],
            [
              -58.63267500103858,
              -34.624335808292884
            ],
            [
              -58.63269550425665,
              -34.62433426596442
            ],
            [
              -58.638191686734466,
              -34.623485422212674
            ],
            [
              -58.63820003926471,
              -34.62348341947856
            ],
            [
              -58.6382242,
              -34.6234804
            ],
            [
              -58.63824727781225,
              -34.62346177345054
            ],
            [
              -58.63824787044579,
              -34.62346138274742
            ],
            [
              -58.652511715142325,
              -34.611999142102995
            ],
            [
              -58.652515430623794,
              -34.61199668541163
            ],
            [
              -58.652518499290544,
              -34.61199968668415
            ],
            [
              -58.655419243002804,
              -34.615468344686015
            ],
            [
              -58.655421662947454,
              -34.6154719540514
            ]
          ]
        ]
      }
    },
    {
      "type": "Feature",
      "properties": {
        "id": "delivery-zone-11",
        "featureType": "delivery_zone",
        "name": "Zona 6 - $3500",
        "originalName": "Zona 6 - $3500",
        "zoneNumber": 6,
        "customerDeliveryFee": 3500,
        "deliveryPrice": 3500,
        "description": "",
        "source": "Envios Burger Ya (1).kmz"
      },
      "geometry": {
        "type": "Polygon",
        "coordinates": [
          [
            [
              -58.620495,
              -34.6052825
            ],
            [
              -58.620862,
              -34.6066527
            ],
            [
              -58.622285,
              -34.6081905
            ],
            [
              -58.6239387,
              -34.6096578
            ],
            [
              -58.6245503,
              -34.6099227
            ],
            [
              -58.6256953,
              -34.6109222
            ],
            [
              -58.6258753,
              -34.6115783
            ],
            [
              -58.6244108,
              -34.6118653
            ],
            [
              -58.6244777,
              -34.6143923
            ],
            [
              -58.6205455,
              -34.6145204
            ],
            [
              -58.6209532,
              -34.6125955
            ],
            [
              -58.6219617,
              -34.6111297
            ],
            [
              -58.6207172,
              -34.6098581
            ],
            [
              -58.620495,
              -34.6052825
            ]
          ]
        ]
      }
    },
    {
      "type": "Feature",
      "properties": {
        "id": "delivery-zone-13",
        "featureType": "delivery_zone",
        "name": "Zona 7 - $4000",
        "originalName": "Zona 7 - $4000",
        "zoneNumber": 7,
        "customerDeliveryFee": 4000,
        "deliveryPrice": 4000,
        "description": "",
        "source": "Envios Burger Ya (1).kmz"
      },
      "geometry": {
        "type": "Polygon",
        "coordinates": [
          [
            [
              -58.6524473,
              -34.6177396
            ],
            [
              -58.6541398,
              -34.6193068
            ],
            [
              -58.650213,
              -34.62245
            ],
            [
              -58.6491428,
              -34.6205583
            ],
            [
              -58.6524473,
              -34.6177396
            ]
          ]
        ]
      }
    },
    {
      "type": "Feature",
      "properties": {
        "id": "delivery-zone-14",
        "featureType": "delivery_zone",
        "name": "Zona 8 - $4500",
        "originalName": "Zona 8 - $4500",
        "zoneNumber": 8,
        "customerDeliveryFee": 4500,
        "deliveryPrice": 4500,
        "description": "Fusion (Fase 3.5) de delivery-zone-14, delivery-zone-15. Hueco puntual de error de trazado (pocos metros) cerrado con buffer local +/-10m aplicado SOLO a este par, confirmado por el usuario como error de dibujo, no exclusion real.",
        "source": "fusion-fase-3.5-gap-closed"
      },
      "geometry": {
        "type": "Polygon",
        "coordinates": [
          [
            [
              -58.66592536909713,
              -34.62052108619511
            ],
            [
              -58.66592230219564,
              -34.62052412151106
            ],
            [
              -58.65399910606948,
              -34.630264954489036
            ],
            [
              -58.65399538273884,
              -34.630267476971184
            ],
            [
              -58.65399069836686,
              -34.630266532421565
            ],
            [
              -58.653478177443304,
              -34.63012055729519
            ],
            [
              -58.65345833369515,
              -34.630116567609974
            ],
            [
              -58.653437934277356,
              -34.63011568603437
            ],
            [
              -58.65341769179325,
              -34.63011794336405
            ],
            [
              -58.6533983133641,
              -34.63012326074476
            ],
            [
              -58.65272763287814,
              -34.630366709871424
            ],
            [
              -58.65270928052799,
              -34.63037519468404
            ],
            [
              -58.65269324543593,
              -34.63038641712386
            ],
            [
              -58.65204603406629,
              -34.63093613804899
            ],
            [
              -58.65204270229734,
              -34.630938537113884
            ],
            [
              -58.65203860634364,
              -34.63093992003904
            ],
            [
              -58.65116709966264,
              -34.631167256686204
            ],
            [
              -58.65116305066702,
              -34.63116803765503
            ],
            [
              -58.651158904165264,
              -34.63116830010169
            ],
            [
              -58.64522494191431,
              -34.63116830013912
            ],
            [
              -58.64521348967555,
              -34.6311687949118
            ],
            [
              -58.632179102651975,
              -34.63229777174911
            ],
            [
              -58.63217316177302,
              -34.63229773580327
            ],
            [
              -58.63216782785518,
              -34.6322955830309
            ],
            [
              -58.63023841877519,
              -34.6312820213446
            ],
            [
              -58.63023442614059,
              -34.631279450129185
            ],
            [
              -58.63023440233039,
              -34.631279393221675
            ],
            [
              -58.63022530213958,
              -34.63126312251673
            ],
            [
              -58.630212463755065,
              -34.63124865838688
            ],
            [
              -58.63019639641649,
              -34.6312365745556
            ],
            [
              -58.63017773743993,
              -34.631227350330924
            ],
            [
              -58.630157226938636,
              -34.63122135159382
            ],
            [
              -58.63013567846631,
              -34.631218816285454
            ],
            [
              -58.63011394674765,
              -34.631219844969365
            ],
            [
              -58.63009289377579,
              -34.631224396842605
            ],
            [
              -58.630073354621466,
              -34.63123229135416
            ],
            [
              -58.627819005020854,
              -34.63238539803908
            ],
            [
              -58.62781456895169,
              -34.632387222320396
            ],
            [
              -58.62780963098835,
              -34.63238760014944
            ],
            [
              -58.62058364855733,
              -34.63238760000438
            ],
            [
              -58.61288617061394,
              -34.632369913906025
            ],
            [
              -58.612880492201825,
              -34.63236938852179
            ],
            [
              -58.61287637741395,
              -34.63236612612098
            ],
            [
              -58.61256188792659,
              -34.632055642245675
            ],
            [
              -58.61255900147164,
              -34.63205211293972
            ],
            [
              -58.61256207725056,
              -34.632048693616255
            ],
            [
              -58.61752164959104,
              -34.6275757317178
            ],
            [
              -58.61752872518143,
              -34.62757038312447
            ],
            [
              -58.61869533368658,
              -34.62683326932784
            ],
            [
              -58.61870991221606,
              -34.62682218834469
            ],
            [
              -58.618721815118214,
              -34.62680912064359
            ],
            [
              -58.618730649889976,
              -34.62679449713879
            ],
            [
              -58.618736125201934,
              -34.62677880004778
            ],
            [
              -58.61873806050495,
              -34.62676254698982
            ],
            [
              -58.6187659775907,
              -34.62335873238799
            ],
            [
              -58.61876582078221,
              -34.62335327153263
            ],
            [
              -58.61863518664485,
              -34.62136440918795
            ],
            [
              -58.61863274428458,
              -34.62134975664067
            ],
            [
              -58.61837377582213,
              -34.620390606869904
            ],
            [
              -58.61837259179878,
              -34.62037805466077
            ],
            [
              -58.61843740316707,
              -34.61954182990782
            ],
            [
              -58.618438082719116,
              -34.61953810422594
            ],
            [
              -58.618440237917866,
              -34.61953478040718
            ],
            [
              -58.618960082842705,
              -34.61887530076608
            ],
            [
              -58.618963310956815,
              -34.61887197145621
            ],
            [
              -58.61896824120647,
              -34.61887067544759
            ],
            [
              -58.61950881588182,
              -34.61877531638872
            ],
            [
              -58.61952824658671,
              -34.61877029121483
            ],
            [
              -58.61954620666459,
              -34.618762385980375
            ],
            [
              -58.6195620722268,
              -34.618751875293846
            ],
            [
              -58.61957529214362,
              -34.61873912427064
            ],
            [
              -58.619585407189135,
              -34.61872457584979
            ],
            [
              -58.61959206599353,
              -34.61870873540722
            ],
            [
              -58.61981523388508,
              -34.61795736285753
            ],
            [
              -58.61981687612074,
              -34.61795350847139
            ],
            [
              -58.619821829302595,
              -34.617953249810505
            ],
            [
              -58.620849344468745,
              -34.617982129655424
            ],
            [
              -58.62086922056206,
              -34.61798119493485
            ],
            [
              -58.62088856075056,
              -34.61797730814753
            ],
            [
              -58.62090672313553,
              -34.61797059829556
            ],
            [
              -58.620923104909785,
              -34.61796128807814
            ],
            [
              -58.620937162364896,
              -34.61794968650029
            ],
            [
              -58.62094842893684,
              -34.61793617861684
            ],
            [
              -58.62098851519363,
              -34.61787724699213
            ],
            [
              -58.62099082317452,
              -34.617874534248614
            ],
            [
              -58.620991298974424,
              -34.61787782260333
            ],
            [
              -58.621058151412775,
              -34.620932510853585
            ],
            [
              -58.62105968565734,
              -34.6209459938168
            ],
            [
              -58.62213804001222,
              -34.62615496309343
            ],
            [
              -58.62213838791116,
              -34.626159413965865
            ],
            [
              -58.62213460758245,
              -34.62616261013273
            ],
            [
              -58.62199660326331,
              -34.626257184583594
            ],
            [
              -58.621982603803474,
              -34.62626869761308
            ],
            [
              -58.62197135730893,
              -34.626282099511826
            ],
            [
              -58.6219632326337,
              -34.626296950736176
            ],
            [
              -58.621958496245625,
              -34.62631276420847
            ],
            [
              -58.62195730348672,
              -34.6263290212918
            ],
            [
              -58.62195969347816,
              -34.62634518879978
            ],
            [
              -58.62262222939192,
              -34.62888147668815
            ],
            [
              -58.6229114,
              -34.6301456
            ],
            [
              -58.62366639894704,
              -34.630006169017854
            ],
            [
              -58.62645782279334,
              -34.629514993456176
            ],
            [
              -58.62646058365966,
              -34.62951472932268
            ],
            [
              -58.6267811,
              -34.630617
            ],
            [
              -58.627415969329896,
              -34.63049200828552
            ],
            [
              -58.63039525549642,
              -34.629934362998554
            ],
            [
              -58.63039685194404,
              -34.62993419497883
            ],
            [
              -58.630416569840044,
              -34.62993057064926
            ],
            [
              -58.630435140087144,
              -34.629924021841454
            ],
            [
              -58.63045192810085,
              -34.629914772342126
            ],
            [
              -58.63046636019982,
              -34.62990313822626
            ],
            [
              -58.630477943209925,
              -34.629889517056114
            ],
            [
              -58.630486281316976,
              -34.62987437429555
            ],
            [
              -58.6304910895924,
              -34.62985822740406
            ],
            [
              -58.63052195640976,
              -34.629687558547744
            ],
            [
              -58.63052392410273,
              -34.629680571204325
            ],
            [
              -58.631109781279214,
              -34.628163450840006
            ],
            [
              -58.6311119352105,
              -34.628159388827804
            ],
            [
              -58.63111703184593,
              -34.628157955900214
            ],
            [
              -58.64259023678656,
              -34.625991869480885
            ],
            [
              -58.64259561400258,
              -34.62599133882273
            ],
            [
              -58.64259879522108,
              -34.625994945451524
            ],
            [
              -58.64381504618805,
              -34.62773636197802
            ],
            [
              -58.643826791181915,
              -34.627750046366145
            ],
            [
              -58.64384141690154,
              -34.627761700779445
            ],
            [
              -58.643858415799315,
              -34.62777092078092
            ],
            [
              -58.64387719797181,
              -34.62777738641352
            ],
            [
              -58.64389711163101,
              -34.62778087330365
            ],
            [
              -58.643917465723106,
              -34.62778126044746
            ],
            [
              -58.643937553910035,
              -34.627778534410105
            ],
            [
              -58.651997363805876,
              -34.626037196690426
            ],
            [
              -58.652017375901934,
              -34.62603109980487
            ],
            [
              -58.65203556671074,
              -34.62602191908912
            ],
            [
              -58.65205124269548,
              -34.62601000456448
            ],
            [
              -58.652063806199514,
              -34.625995810480546
            ],
            [
              -58.65207277823238,
              -34.62597987799639
            ],
            [
              -58.65207781673158,
              -34.62596281454847
            ],
            [
              -58.65207872960356,
              -34.62594527069163
            ],
            [
              -58.652075482047124,
              -34.625927915296145
            ],
            [
              -58.6520681978798,
              -34.62591141004671
            ],
            [
              -58.6520571548169,
              -34.62589638421529
            ],
            [
              -58.65204277388311,
              -34.62588341066993
            ],
            [
              -58.65067348653322,
              -34.624867856734966
            ],
            [
              -58.65067017916145,
              -34.624864870816005
            ],
            [
              -58.6506730906128,
              -34.62486161767031
            ],
            [
              -58.65157308038,
              -34.624038887788664
            ],
            [
              -58.65158605478412,
              -34.62402431491497
            ],
            [
              -58.65159522800423,
              -34.62400790220836
            ],
            [
              -58.651600229883336,
              -34.623990311957236
            ],
            [
              -58.651600858587514,
              -34.62397225396604
            ],
            [
              -58.65159708875005,
              -34.623954456913026
            ],
            [
              -58.65158907249455,
              -34.62393763894665
            ],
            [
              -58.65157713329597,
              -34.6239224787067
            ],
            [
              -58.65025384379616,
              -34.62256373078805
            ],
            [
              -58.65025122164694,
              -34.62256044267717
            ],
            [
              -58.65025446962622,
              -34.622557557560995
            ],
            [
              -58.65165237058381,
              -34.621530706848674
            ],
            [
              -58.651656602242326,
              -34.621528193995275
            ],
            [
              -58.65166085279106,
              -34.621530685164444
            ],
            [
              -58.65321073160372,
              -34.62265501132407
            ],
            [
              -58.65322734020813,
              -34.6226649437699
            ],
            [
              -58.65324591323544,
              -34.62267214462245
            ],
            [
              -58.6532657951633,
              -34.622676359732374
            ],
            [
              -58.6532862842722,
              -34.62267744033014
            ],
            [
              -58.65330665741233,
              -34.622675348276715
            ],
            [
              -58.653326195526994,
              -34.62267015740981
            ],
            [
              -58.65334420903142,
              -34.622662050937635
            ],
            [
              -58.65336006215144,
              -34.62265131497278
            ],
            [
              -58.66120137977629,
              -34.61623320907053
            ],
            [
              -58.66120528078189,
              -34.61623060432043
            ],
            [
              -58.661209010892165,
              -34.61623337343392
            ],
            [
              -58.66592250253502,
              -34.62051792104802
            ],
            [
              -58.66592536909713,
              -34.62052108619511
            ]
          ]
        ]
      }
    },
    {
      "type": "Feature",
      "properties": {
        "id": "delivery-zone-16",
        "featureType": "delivery_zone",
        "name": "Zona 9 - $6000",
        "originalName": "Zona 9 - $6000",
        "zoneNumber": 9,
        "customerDeliveryFee": 6000,
        "deliveryPrice": 6000,
        "description": "",
        "source": "Envios Burger Ya (1).kmz"
      },
      "geometry": {
        "type": "Polygon",
        "coordinates": [
          [
            [
              -58.6186866,
              -34.5767282
            ],
            [
              -58.6206607,
              -34.5780533
            ],
            [
              -58.6195663,
              -34.5790603
            ],
            [
              -58.6199097,
              -34.5793077
            ],
            [
              -58.6187295,
              -34.5805443
            ],
            [
              -58.619502,
              -34.5809153
            ],
            [
              -58.6171845,
              -34.5831236
            ],
            [
              -58.6168841,
              -34.5829116
            ],
            [
              -58.6139015,
              -34.5858265
            ],
            [
              -58.6152104,
              -34.5867451
            ],
            [
              -58.6131505,
              -34.5882113
            ],
            [
              -58.6128072,
              -34.5878404
            ],
            [
              -58.6117772,
              -34.587911
            ],
            [
              -58.6115412,
              -34.58807
            ],
            [
              -58.6093525,
              -34.5867275
            ],
            [
              -58.6078075,
              -34.5872751
            ],
            [
              -58.6066005,
              -34.5859237
            ],
            [
              -58.616219,
              -34.5768696
            ],
            [
              -58.6174957,
              -34.5776469
            ],
            [
              -58.6186866,
              -34.5767282
            ]
          ]
        ]
      }
    },
    {
      "type": "Feature",
      "properties": {
        "id": "delivery-zone-17",
        "featureType": "delivery_zone",
        "name": "Zona 10 - $6000",
        "originalName": "Zona 10 - $6000",
        "zoneNumber": 10,
        "customerDeliveryFee": 6000,
        "deliveryPrice": 6000,
        "description": "Fusion (Fase 3.5, dissolve de poligonos contiguos/solapados de igual tarifa) de delivery-zone-17, delivery-zone-18. Sin buffer ni cierre de huecos.",
        "source": "fusion-fase-3.5"
      },
      "geometry": {
        "type": "MultiPolygon",
        "coordinates": [
          [
            [
              [
                -58.6039475,
                -34.588528
              ],
              [
                -58.5958794,
                -34.5985964
              ],
              [
                -58.5994629,
                -34.6044956
              ],
              [
                -58.5773615,
                -34.6052374
              ],
              [
                -58.5762027,
                -34.6016344
              ],
              [
                -58.5762671,
                -34.6016344
              ],
              [
                -58.5760525,
                -34.6005393
              ],
              [
                -58.5792712,
                -34.5982785
              ],
              [
                -58.5903863,
                -34.5897645
              ],
              [
                -58.5899571,
                -34.5891639
              ],
              [
                -58.6039475,
                -34.588528
              ]
            ]
          ],
          [
            [
              [
                -58.603193,
                -34.6143756
              ],
              [
                -58.5987298,
                -34.6206621
              ],
              [
                -58.5940949,
                -34.6152232
              ],
              [
                -58.5938453,
                -34.6138561
              ],
              [
                -58.580091,
                -34.6051494
              ],
              [
                -58.5994629,
                -34.6044956
              ],
              [
                -58.5998456,
                -34.6055806
              ],
              [
                -58.603193,
                -34.6143756
              ]
            ]
          ]
        ]
      }
    },
    {
      "type": "Feature",
      "properties": {
        "id": "delivery-zone-19",
        "featureType": "delivery_zone",
        "name": "Zona 11 - $7000",
        "originalName": "Zona 11 - $7000",
        "zoneNumber": 11,
        "customerDeliveryFee": 7000,
        "deliveryPrice": 7000,
        "description": "",
        "source": "Envios Burger Ya (1).kmz"
      },
      "geometry": {
        "type": "Polygon",
        "coordinates": [
          [
            [
              -58.605877,
              -34.5858306
            ],
            [
              -58.6005662,
              -34.5797358
            ],
            [
              -58.6027764,
              -34.5779161
            ],
            [
              -58.6110698,
              -34.5715644
            ],
            [
              -58.6117457,
              -34.5722005
            ],
            [
              -58.6153613,
              -34.5752394
            ],
            [
              -58.6089025,
              -34.5810608
            ],
            [
              -58.6098252,
              -34.5816261
            ],
            [
              -58.6080657,
              -34.5829688
            ],
            [
              -58.6088596,
              -34.5836047
            ],
            [
              -58.605877,
              -34.5858306
            ]
          ]
        ]
      }
    },
    {
      "type": "Feature",
      "properties": {
        "id": "marker-01",
        "featureType": "location_marker",
        "name": "Burger Ya",
        "description": "",
        "source": "Envios Burger Ya (1).kmz"
      },
      "geometry": {
        "type": "Point",
        "coordinates": [
          -58.6467546,
          -34.6002402
        ]
      }
    },
    {
      "type": "Feature",
      "properties": {
        "id": "marker-02",
        "featureType": "location_marker",
        "name": "9",
        "description": "",
        "source": "Envios Burger Ya (1).kmz"
      },
      "geometry": {
        "type": "Point",
        "coordinates": [
          -58.6596529,
          -34.5979331
        ]
      }
    }
  ]
}
